     2.11           N: GPS NAV DATA                         RINEX VERSION / TYPE
CROSS_LOOPBACK                          20260606 212538 UTC PGM / RUN BY / DATE 
    0.0000E+00  0.0000E+00  0.0000E+00  0.0000E+00          ION ALPHA           
    0.0000E+00  0.0000E+00  0.0000E+00  0.0000E+00          ION BETA            
    0.000000000000E+00 0.000000000000E+00        0        0 DELTA-UTC: A0,A1,T,W
     0                                                      LEAP SECONDS        
                                                            END OF HEADER       
30 26  6  5  0  0  0.0 0.247699674219E-03 0.138697942020E-10 0.000000000000E+00
    0.810000000000E+02-0.825000000000E+01 0.519700219029E-08-0.505347334545E+00
   -0.476837158203E-06 0.824966304936E-02 0.879541039467E-05 0.515370690155E+04
    0.432000000000E+06-0.633299350739E-07-0.172134034165E+01 0.147148966789E-06
    0.935969997102E+00 0.194625000000E+03-0.226701317104E+01-0.833891877801E-08
    0.317156067966E-09 0.100000000000E+01 0.242100000000E+04 0.000000000000E+00
    0.240000000000E+01 0.000000000000E+00 0.419095158577E-08 0.810000000000E+02
   -0.178018560000E+10 0.400000000000E+01 0.000000000000E+00 0.000000000000E+00
31 26  6  5  0  0  0.0-0.144551973790E-03 0.250111042988E-11 0.000000000000E+00
    0.850000000000E+02-0.509375000000E+01 0.471055335631E-08-0.130938024499E+01
   -0.169500708580E-06 0.108105422696E-01 0.830926001072E-05 0.515361081696E+04
    0.432000000000E+06 0.221654772758E-06-0.168631157723E+01 0.124797224998E-06
    0.954396613330E+00 0.214718750000E+03 0.957621737658E+00-0.794961684774E-08
    0.281797452281E-09 0.100000000000E+01 0.242100000000E+04 0.000000000000E+00
    0.240000000000E+01 0.000000000000E+00-0.135041773319E-07 0.850000000000E+02
   -0.178018560000E+10 0.400000000000E+01 0.000000000000E+00 0.000000000000E+00
32 26  6  5  0  0  0.0 0.917897559702E-04 0.209183781408E-10 0.000000000000E+00
    0.870000000000E+02-0.976562500000E+02 0.423981946264E-08-0.310084761285E+01
   -0.501424074173E-05 0.938856997527E-02 0.765174627304E-05 0.515377606010E+04
    0.432000000000E+06 0.122934579849E-06-0.276623379443E+01-0.186264514923E-06
    0.969217712882E+00 0.234093750000E+03-0.197802133507E+01-0.773817946909E-08
    0.139291516336E-10 0.100000000000E+01 0.242100000000E+04 0.000000000000E+00
    0.240000000000E+01 0.000000000000E+00 0.931322574615E-09 0.870000000000E+02
   -0.178018560000E+10 0.400000000000E+01 0.000000000000E+00 0.000000000000E+00
13 26  6  5  1 29 36.0 0.344564672559E-03 0.227373675443E-10 0.000000000000E+00
    0.163000000000E+03 0.178125000000E+01 0.487770317592E-08-0.398149044026E+00
    0.819563865662E-07 0.231880380306E-02 0.620074570179E-05 0.515361505127E+04
    0.437376000000E+06-0.931322574615E-08-0.700846666905E+00-0.186264514923E-08
    0.959166255845E+00 0.257593750000E+03 0.184152790666E+01-0.812248119109E-08
   -0.155720772109E-09 0.100000000000E+01 0.242100000000E+04 0.000000000000E+00
    0.240000000000E+01 0.630000000000E+02-0.838190317154E-08 0.419000000000E+03
   -0.178018560000E+10 0.400000000000E+01 0.000000000000E+00 0.000000000000E+00
 6 26  6  5  1 59 44.0-0.595347955823E-03 0.500222085975E-11 0.000000000000E+00
    0.200000000000E+01 0.954687500000E+02 0.368122476636E-08 0.162535062955E+01
    0.503100454807E-05 0.370254972950E-02 0.603497028351E-05 0.515369524193E+04
    0.439184000000E+06 0.167638063431E-07 0.145817564703E+01 0.106170773506E-06
    0.985941101867E+00 0.275187500000E+03-0.528345291816E+00-0.769603485646E-08
    0.150363406097E-09 0.100000000000E+01 0.242100000000E+04 0.000000000000E+00
    0.240000000000E+01 0.000000000000E+00 0.372529029846E-08 0.200000000000E+01
   -0.178018560000E+10 0.400000000000E+01 0.000000000000E+00 0.000000000000E+00
 9 26  6  5  1 59 44.0 0.741357915103E-03-0.511590769747E-11 0.000000000000E+00
    0.700000000000E+01-0.935000000000E+02 0.438946855327E-08-0.208670100715E+01
   -0.468827784061E-05 0.348756439053E-02 0.793859362602E-05 0.515372777748E+04
    0.439184000000E+06-0.149011611938E-07-0.278360139987E+01 0.689178705215E-07
    0.966233310261E+00 0.231218750000E+03 0.203880432754E+01-0.787354225035E-08
    0.785747015231E-10 0.100000000000E+01 0.242100000000E+04 0.000000000000E+00
    0.240000000000E+01 0.000000000000E+00 0.465661287308E-09 0.700000000000E+01
   -0.178018560000E+10 0.400000000000E+01 0.000000000000E+00 0.000000000000E+00
15 26  6  5  1 59 44.0 0.417485367507E-03 0.318323145621E-11 0.000000000000E+00
    0.570000000000E+02-0.124406250000E+03 0.482091509618E-08 0.258364380565E+01
   -0.648945569992E-05 0.168291463051E-01 0.631622970104E-05 0.515374412727E+04
    0.439184000000E+06 0.191852450371E-06-0.292983912079E+01-0.113621354103E-06
    0.944297684600E+00 0.248625000000E+03 0.152136554497E+01-0.793747348477E-08
   -0.817891211309E-10 0.100000000000E+01 0.242100000000E+04 0.000000000000E+00
    0.240000000000E+01 0.000000000000E+00-0.107102096081E-07 0.570000000000E+02
   -0.178018560000E+10 0.400000000000E+01 0.000000000000E+00 0.000000000000E+00
 1 26  6  5  2  0  0.0 0.256409402937E-03-0.101181285572E-10 0.000000000000E+00
    0.950000000000E+02 0.857187500000E+02 0.438018245218E-08 0.239372849011E+01
    0.447407364845E-05 0.176643149462E-02 0.528618693352E-05 0.515361360931E+04
    0.439200000000E+06-0.167638063431E-07 0.150502855507E+01 0.558793544769E-08
    0.957150508338E+00 0.273593750000E+03 0.206301335130E+00-0.812712424163E-08
    0.156435087578E-09 0.100000000000E+01 0.242100000000E+04 0.000000000000E+00
    0.240000000000E+01 0.000000000000E+00-0.884756445885E-08 0.950000000000E+02
   -0.178018560000E+10 0.400000000000E+01 0.000000000000E+00 0.000000000000E+00
 2 26  6  5  2  0  0.0 0.112542416900E-03 0.750333128963E-11 0.000000000000E+00
    0.220000000000E+02 0.992812500000E+02 0.408016995546E-08-0.240898349556E+01
    0.544823706150E-05 0.168354703346E-01 0.654533505440E-05 0.515375263786E+04
    0.439200000000E+06-0.894069671631E-07 0.134283650559E+01 0.296160578728E-06
    0.962250467514E+00 0.255062500000E+03-0.758198120235E+00-0.778746723641E-08
    0.126076680171E-09 0.100000000000E+01 0.242100000000E+04 0.000000000000E+00
    0.240000000000E+01 0.000000000000E+00-0.172294676304E-07 0.220000000000E+02
   -0.178018560000E+10 0.400000000000E+01 0.000000000000E+00 0.000000000000E+00
 3 26  6  5  2  0  0.0 0.434676650912E-03-0.165982783074E-10 0.000000000000E+00
    0.540000000000E+02-0.211875000000E+02 0.387016120775E-08 0.352576827131E+00
   -0.134296715260E-05 0.691175973043E-02 0.296346843243E-05 0.515357834244E+04
    0.439200000000E+06-0.670552253723E-07 0.249592228564E+01 0.540167093277E-07
    0.994508201761E+00 0.340625000000E+03 0.123558364384E+01-0.805247827518E-08
    0.389301930274E-10 0.100000000000E+01 0.242100000000E+04 0.000000000000E+00
    0.340000000000E+01 0.000000000000E+00 0.139698386192E-08 0.540000000000E+02
   -0.178018560000E+10 0.400000000000E+01 0.000000000000E+00 0.000000000000E+00
 4 26  6  5  2  0  0.0 0.591631978750E-04 0.113686837722E-11 0.000000000000E+00
    0.128000000000E+03-0.900312500000E+02 0.418660296025E-08-0.297797172374E+01
   -0.461377203465E-05 0.376339012291E-02 0.824220478535E-05 0.515370018768E+04
    0.439200000000E+06-0.670552253723E-07-0.271875560740E+01-0.298023223877E-07
    0.971953922674E+00 0.230500000000E+03-0.288364221740E+01-0.775568019807E-08
    0.957182727646E-10 0.100000000000E+01 0.242100000000E+04 0.000000000000E+00
    0.240000000000E+01 0.000000000000E+00-0.465661287308E-08 0.896000000000E+03
   -0.178018560000E+10 0.400000000000E+01 0.000000000000E+00 0.000000000000E+00
 5 26  6  5  2  0  0.0-0.233768485487E-03-0.454747350886E-12 0.000000000000E+00
    0.300000000000E+02-0.171875000000E+02 0.416445918073E-08-0.236689165879E+01
   -0.935047864914E-06 0.561078067403E-02 0.152364373207E-05 0.515375337601E+04
    0.439200000000E+06 0.391155481339E-07 0.243493710765E+01 0.186264514923E-08
    0.980915875861E+00 0.353500000000E+03 0.144764766344E+01-0.809033699501E-08
    0.131434046184E-09 0.100000000000E+01 0.242100000000E+04 0.000000000000E+00
    0.240000000000E+01 0.000000000000E+00-0.107102096081E-07 0.300000000000E+02
   -0.178018560000E+10 0.400000000000E+01 0.000000000000E+00 0.000000000000E+00
 6 26  6  5  2  0  0.0-0.595347955823E-03 0.500222085975E-11 0.000000000000E+00
    0.980000000000E+02 0.954687500000E+02 0.368122476636E-08 0.162768248879E+01
    0.503100454807E-05 0.370254518930E-02 0.603497028351E-05 0.515369524384E+04
    0.439200000000E+06 0.167638063431E-07 0.145817551829E+01 0.106170773506E-06
    0.985941109182E+00 0.275187500000E+03-0.528343467558E+00-0.769603485646E-08
    0.150363406097E-09 0.100000000000E+01 0.242100000000E+04 0.000000000000E+00
    0.340000000000E+01 0.000000000000E+00 0.372529029846E-08 0.980000000000E+02
   -0.178018560000E+10 0.400000000000E+01 0.000000000000E+00 0.000000000000E+00
 7 26  6  5  2  0  0.0-0.192317180336E-03-0.409272615798E-11 0.000000000000E+00
    0.860000000000E+02-0.528125000000E+01 0.504556731099E-08 0.819666833614E+00
   -0.139698386192E-06 0.208899658173E-01 0.919215381145E-05 0.515359668922E+04
    0.439200000000E+06-0.292435288429E-06-0.171101086873E+01 0.614672899246E-07
    0.950678544126E+00 0.205218750000E+03-0.196384664196E+01-0.845428072616E-08
    0.208580116771E-09 0.100000000000E+01 0.242100000000E+04 0.000000000000E+00
    0.240000000000E+01 0.000000000000E+00-0.107102096081E-07 0.860000000000E+02
   -0.178018560000E+10 0.400000000000E+01 0.000000000000E+00 0.000000000000E+00
